
 PEER Ground Motion Database, Time Series Search Report -- NGA-West2 -- 2021-03-29


 -- Summary of PEER Ground Motion Database Search Criteria --
Magnitude Min:, -1.0e-06
Magnitude Max:, 99999
Rrup Min (km):, -1.0e-06
Rrup Max (km):, 99999
Rjb Min (km):, -1.0e-06
Rjb Max (km):, 99999
Vs30 Min (m/sec):, -1.0e-06
Vs30 Max (m/sec):, 99999
D9-95 Min (sec):, -1.0e-06
D9-95 Max (sec):, 99999
Scale Factor Min:, -1.0e-06
Scale Factor Max:, 99999
Period Array:, 
Weight Array:, 
Record Sequence Number:, 1605,1588,1586,1582,1581,1575,1574,1557,1554,1553,1552,1544,1543,1542,1539,1538,1526,1525,1524,1523,1521,1518,1517,1514,1513,1512,1509,1508,1507,1487,1485,1484,1481,1479,1478,1477,1476,1475,1472,1471,1380,1350,1347,1304,1303,1302,1301,1300,1297,1296,1295,1294,1293,1291,1290,1289,1288,1287,1286,1285,1284,1283,1282,1281,1280,1279,1278,1277,1276,1275,1274,1271,1270,1269,1268,1267,1266,1265,1264,1263,1262,1261,1260,1259,1258,1256,1247,1245,1243,1240,1239,1237,1236,1235,1234,1233,1232,1230,1228,1227,1219,1215,1214,1213,1212,1211,1210,1209,1208,1207,1206,1204,1200,1199,1196,1195,1190,1189,1187,1186,1094,1091,1088,1087,1083,1082,1080,1077,1076,1074,1072,1070,1062,1057,1053,1049,1048,1042,1041,1039,1035,1034,1033,1032,1031,1026,1024,1020,1019,1018,1017,1016,1015,1007,1006,1005,1003,1001,999,998,997,996,995,993,992,991,990,989,988,987,985,984,981,978,976,975,974,971,970,968,967,966,965,964,963,962,961,960,959,957,956,954,953,952,951,950,948,945,942,718,705,704,703,701,700,699,698,697,696,695,694,692,691,690,688,683,673,672,671,670,667,666,665,664,663,661,656,655,654,650,649,648,646,645,641,640,639,638,637,636,635,634,633,632,629,628,627,626,625,624,622,621,620,618,617,616,614,613,612,611,608,607,605,604,602,599,598,597,596,594,593,592,591,590,589,546,545,544,543
Earthquake Name:, 
Station Name:, 
User-Defined Maximum Number of Records:, 
Pulse:, 1
Damping Ratio:, 0.05
Scaling Method:, No Scaling
Suite Average:, Arithmetic
Single-Period-Scaling Period (sec):, 
Component:, SRSS
Fault Type:, All Types


 -- Summary of Metadata of Selected Records --
Result ID, Spectral Ordinate, Record Sequence Number, Mean Squared Error, Scale Factor, Tp-Pulse Period (sec), 5-75% Duration (sec), 5-95% Duration (sec), Arias Intensity (m/sec), Earthquake Name, Year, Station Name, Magnitude, Mechanism, Rjb (km), Rrup (km), Vs30 (m/sec), Lowest Useable Frequency (Hz), Initial-search Scale Factor, Horizontal-1 Acc. Filename, Horizontal-2 Acc. Filename, Vertical Acc. Filename
1, SRSS, 543, -, 1.0, -, 5.7, 18.5, 0.0, "Chalfant Valley-01", 1986, "Benton", 5.77, strike slip, 24.25, 24.33, 370.94, 0.25, 1.0, RSN543_CHALFANT.B_B-BEN270.AT2, RSN543_CHALFANT.B_B-BEN360.AT2 , RSN543_CHALFANT.B_B-BEN-UP.AT2  
2, SRSS, 544, -, 1.0, -, 12.1, 21.7, 0.1, "Chalfant Valley-01", 1986, "Bishop - LADWP South St", 5.77, strike slip, 23.38, 23.47, 303.47, 0.15, 1.0, RSN544_CHALFANT.B_B-LAD180.AT2, RSN544_CHALFANT.B_B-LAD270.AT2 , RSN544_CHALFANT.B_B-LAD-UP.AT2  
3, SRSS, 545, -, 1.0, -, 3.1, 16.9, 0.0, "Chalfant Valley-01", 1986, "Bishop - Paradise Lodge", 5.77, strike slip, 14.99, 15.13, 585.12, 0.1375, 1.0, RSN545_CHALFANT.B_B-BPL070.AT2, RSN545_CHALFANT.B_B-BPL160.AT2 , RSN545_CHALFANT.B_B-BPL-UP.AT2  
4, SRSS, 546, -, 1.0, -, 4.0, 17.3, 0.0, "Chalfant Valley-01", 1986, "Lake Crowley - Shehorn Res.", 5.77, strike slip, 24.37, 24.45, 456.83, 0.2, 1.0, RSN546_CHALFANT.B_B-SHE009.AT2, RSN546_CHALFANT.B_B-SHE099.AT2 , RSN546_CHALFANT.B_B-SHE-UP.AT2  
5, SRSS, 589, -, 1.0, -, 2.3, 5.7, 0.9, "Whittier Narrows-01", 1987, "Alhambra - Fremont School", 5.99, Reverse Oblique, 1.67, 14.66, 549.75, 0.4125, 1.0, RSN589_WHITTIER.A_A-ALH180.AT2, RSN589_WHITTIER.A_A-ALH270.AT2 , RSN589_WHITTIER.A_A-ALH-UP.AT2  
6, SRSS, 590, -, 1.0, -, 2.4, 8.2, 0.4, "Whittier Narrows-01", 1987, "Altadena - Eaton Canyon", 5.99, Reverse Oblique, 8.72, 19.52, 375.16, 0.2625, 1.0, RSN590_WHITTIER.A_A-ALT000.AT2, RSN590_WHITTIER.A_A-ALT090.AT2 , RSN590_WHITTIER.A_A-ALT-UP.AT2  
7, SRSS, 591, -, 1.0, -, 7.0, 14.1, 0.1, "Whittier Narrows-01", 1987, "Anaheim - W Ball Rd", 5.99, Reverse Oblique, 25.81, 29.6, 269.29, 0.7, 1.0, RSN591_WHITTIER.A_A-WBA000.AT2, RSN591_WHITTIER.A_A-WBA090.AT2 , RSN591_WHITTIER.A_A-WBA-UP.AT2  
8, SRSS, 592, -, 1.0, -, 3.0, 10.5, 0.9, "Whittier Narrows-01", 1987, "Arcadia - Campus Dr", 5.99, Reverse Oblique, 4.53, 17.42, 367.53, 0.2, 1.0, RSN592_WHITTIER.A_A-CAM009.AT2, RSN592_WHITTIER.A_A-CAM279.AT2 , RSN592_WHITTIER.A_A-CAM-UP.AT2  
9, SRSS, 593, -, 1.0, -, 5.4, 13.6, 0.1, "Whittier Narrows-01", 1987, "Arleta - Nordhoff Fire Sta", 5.99, Reverse Oblique, 32.56, 36.97, 297.71, 0.2875, 1.0, RSN593_WHITTIER.A_A-ARL180.AT2, RSN593_WHITTIER.A_A-ARL270.AT2 , RSN593_WHITTIER.A_A-ARL-UP.AT2  
10, SRSS, 594, -, 1.0, -, 6.8, 11.9, 0.1, "Whittier Narrows-01", 1987, "Baldwin Park - N Holly", 5.99, Reverse Oblique, 4.34, 16.72, 544.68, 0.1, 1.0, RSN594_WHITTIER.A_A-NHO180.AT2, RSN594_WHITTIER.A_A-NHO270.AT2 , RSN594_WHITTIER.A_A-NHO-UP.AT2  
11, SRSS, 596, -, 1.0, -, 4.3, 11.7, 0.1, "Whittier Narrows-01", 1987, "Beverly Hills - 12520 Mulhol", 5.99, Reverse Oblique, 25.91, 29.9, 545.66, 0.33, 1.0, RSN596_WHITTIER.A_A-MU2032.AT2, RSN596_WHITTIER.A_A-MU2122.AT2 , RSN596_WHITTIER.A_A-MU2-UP.AT2  
12, SRSS, 597, -, 1.0, -, 5.7, 16.1, 0.2, "Whittier Narrows-01", 1987, "Beverly Hills - 14145 Mulhol", 5.99, Reverse Oblique, 29.09, 32.7, 355.81, 0.23, 1.0, RSN597_WHITTIER.A_A-MUL009.AT2, RSN597_WHITTIER.A_A-MUL279.AT2 , RSN597_WHITTIER.A_A-MUL-UP.AT2  
13, SRSS, 598, -, 1.0, -, 4.8, 11.0, 0.2, "Whittier Narrows-01", 1987, "Big Tujunga_ Angeles Nat F", 5.99, Reverse Oblique, 22.5, 28.5, 550.11, 1.0, 1.0, RSN598_WHITTIER.A_A-TUJ262.AT2, RSN598_WHITTIER.A_A-TUJ352.AT2 , RSN598_WHITTIER.A_A-TUJ-UP.AT2  
14, SRSS, 599, -, 1.0, -, 3.6, 9.2, 0.1, "Whittier Narrows-01", 1987, "Brea - S Flower Av", 5.99, Reverse Oblique, 18.39, 23.42, 322.75, 0.2, 1.0, RSN599_WHITTIER.A_A-FLO020.AT2, RSN599_WHITTIER.A_A-FLO290.AT2 ,  -----   
15, SRSS, 602, -, 1.0, -, 3.2, 9.7, 0.4, "Whittier Narrows-01", 1987, "Burbank - N Buena Vista", 5.99, Reverse Oblique, 20.37, 26.34, 320.57, 0.3, 1.0, RSN602_WHITTIER.A_A-BUE250.AT2, RSN602_WHITTIER.A_A-BUE340.AT2 , RSN602_WHITTIER.A_A-BUE-UP.AT2  
16, SRSS, 604, -, 1.0, -, 5.7, 14.5, 0.2, "Whittier Narrows-01", 1987, "Canoga Park - Topanga Can", 5.99, Reverse Oblique, 45.98, 48.96, 267.49, 0.3, 1.0, RSN604_WHITTIER.A_A-CNP106.AT2, RSN604_WHITTIER.A_A-CNP196.AT2 , RSN604_WHITTIER.A_A-CNP-UP.AT2  
17, SRSS, 605, -, 1.0, -, 3.8, 8.9, 0.1, "Whittier Narrows-01", 1987, "Canyon Country - W Lost Cany", 5.99, Reverse Oblique, 44.88, 48.18, 325.6, 0.4, 1.0, RSN605_WHITTIER.A_A-LOS000.AT2, RSN605_WHITTIER.A_A-LOS270.AT2 , RSN605_WHITTIER.A_A-LOS-UP.AT2  
18, SRSS, 607, -, 1.0, -, 11.8, 22.8, 0.0, "Whittier Narrows-01", 1987, "Carson - Catskill Ave", 5.99, Reverse Oblique, 29.85, 33.19, 305.14, 0.2, 1.0, RSN607_WHITTIER.A_A-CAT090.AT2, RSN607_WHITTIER.A_A-CAT180.AT2 , RSN607_WHITTIER.A_A-CAT-UP.AT2  
19, SRSS, 608, -, 1.0, -, 7.3, 15.1, 0.2, "Whittier Narrows-01", 1987, "Carson - Water St", 5.99, Reverse Oblique, 26.3, 30.03, 160.58, 0.22, 1.0, RSN608_WHITTIER.A_A-WAT180.AT2, RSN608_WHITTIER.A_A-WAT270.AT2 , RSN608_WHITTIER.A_A-WAT-UP.AT2  
20, SRSS, 611, -, 1.0, -, 2.1, 8.4, 0.7, "Whittier Narrows-01", 1987, "Compton - Castlegate St", 5.99, Reverse Oblique, 18.32, 23.37, 266.9, 0.3, 1.0, RSN611_WHITTIER.A_A-CAS000.AT2, RSN611_WHITTIER.A_A-CAS270.AT2 , RSN611_WHITTIER.A_A-CAS-UP.AT2  
21, SRSS, 612, -, 1.0, -, 7.6, 19.6, 0.1, "Whittier Narrows-01", 1987, "Covina - S Grand Ave", 5.99, Reverse Oblique, 13.58, 20.91, 346.62, 0.13, 1.0, RSN612_WHITTIER.A_A-GRA015.AT2, RSN612_WHITTIER.A_A-GRA105.AT2 , RSN612_WHITTIER.A_A-GRA-UP.AT2  
22, SRSS, 613, -, 1.0, -, 6.2, 15.3, 0.2, "Whittier Narrows-01", 1987, "Covina - W Badillo", 5.99, Reverse Oblique, 9.49, 18.59, 324.79, 0.15, 1.0, RSN613_WHITTIER.A_A-BAD000.AT2, RSN613_WHITTIER.A_A-BAD270.AT2 , RSN613_WHITTIER.A_A-BAD-UP.AT2  
23, SRSS, 614, -, 1.0, -, 1.9, 9.6, 1.0, "Whittier Narrows-01", 1987, "Downey - Birchdale", 5.99, Reverse Oblique, 14.9, 20.79, 245.06, 0.13, 1.0, RSN614_WHITTIER.A_A-BIR090.AT2, RSN614_WHITTIER.A_A-BIR180.AT2 , RSN614_WHITTIER.A_A-BIR-UP.AT2  
24, SRSS, 616, -, 1.0, -, 4.2, 11.4, 0.5, "Whittier Narrows-01", 1987, "El Monte - Fairview Av", 5.99, Reverse Oblique, 0.75, 15.67, 290.63, 0.15, 1.0, RSN616_WHITTIER.A_A-FAI095.AT2, RSN616_WHITTIER.A_A-FAI185.AT2 , RSN616_WHITTIER.A_A-FAI-UP.AT2  
25, SRSS, 617, -, 1.0, -, 3.9, 9.2, 0.1, "Whittier Narrows-01", 1987, "Featherly Park - Maint", 5.99, Reverse Oblique, 35.04, 37.92, 367.54, 0.75, 1.0, RSN617_WHITTIER.A_A-FEA000.AT2, RSN617_WHITTIER.A_A-FEA090.AT2 , RSN617_WHITTIER.A_A-FEA-UP.AT2  
26, SRSS, 618, -, 1.0, -, 9.9, 18.2, 0.1, "Whittier Narrows-01", 1987, "Fountain Valley - Euclid", 5.99, Reverse Oblique, 36.69, 39.45, 270.54, 0.6, 1.0, RSN618_WHITTIER.A_A-EUC022.AT2, RSN618_WHITTIER.A_A-EUC292.AT2 , RSN618_WHITTIER.A_A-EUC-UP.AT2  
27, SRSS, 620, -, 1.0, -, 2.9, 7.4, 0.4, "Whittier Narrows-01", 1987, "Glendale - Las Palmas", 5.99, Reverse Oblique, 14.68, 22.82, 371.07, 0.4, 1.0, RSN620_WHITTIER.A_A-GLP177.AT2, RSN620_WHITTIER.A_A-GLP267.AT2 , RSN620_WHITTIER.A_A-GLP-UP.AT2  
28, SRSS, 621, -, 1.0, -, 4.1, 12.7, 0.1, "Whittier Narrows-01", 1987, "Glendora - N Oakbank", 5.99, Reverse Oblique, 13.67, 22.11, 362.31, 0.5, 1.0, RSN621_WHITTIER.A_A-OAK080.AT2, RSN621_WHITTIER.A_A-OAK170.AT2 , RSN621_WHITTIER.A_A-OAK-UP.AT2  
29, SRSS, 622, -, 1.0, -, 3.2, 11.4, 0.2, "Whittier Narrows-01", 1987, "Hacienda Heights - Colima", 5.99, Reverse Oblique, 9.6, 17.39, 337.0, 0.2, 1.0, RSN622_WHITTIER.A_A-COM140.AT2, RSN622_WHITTIER.A_A-COM230.AT2 , RSN622_WHITTIER.A_A-COM-UP.AT2  
30, SRSS, 624, -, 1.0, -, 11.1, 23.2, 0.0, "Whittier Narrows-01", 1987, "Huntington Beach - Lake St", 5.99, Reverse Oblique, 42.16, 44.58, 315.52, 0.25, 1.0, RSN624_WHITTIER.A_A-HNT270.AT2, RSN624_WHITTIER.A_A-HNT360.AT2 , RSN624_WHITTIER.A_A-HNT-UP.AT2  
31, SRSS, 625, -, 1.0, -, 1.9, 11.2, 0.5, "Whittier Narrows-01", 1987, "Inglewood - Union Oil", 5.99, Reverse Oblique, 21.41, 25.86, 316.02, 0.175, 1.0, RSN625_WHITTIER.A_A-ING000.AT2, RSN625_WHITTIER.A_A-ING090.AT2 , RSN625_WHITTIER.A_A-ING-UP.AT2  
32, SRSS, 626, -, 1.0, -, 1.8, 9.5, 0.9, "Whittier Narrows-01", 1987, "LA - 116th St School", 5.99, Reverse Oblique, 18.23, 23.29, 301.0, 0.1625, 1.0, RSN626_WHITTIER.A_A-116270.AT2, RSN626_WHITTIER.A_A-116360.AT2 , RSN626_WHITTIER.A_A-116-UP.AT2  
33, SRSS, 627, -, 1.0, -, 3.9, 14.4, 0.3, "Whittier Narrows-01", 1987, "LA - Baldwin Hills", 5.99, Reverse Oblique, 21.51, 25.94, 297.07, 0.2875, 1.0, RSN627_WHITTIER.A_A-BLD000.AT2, RSN627_WHITTIER.A_A-BLD090.AT2 , RSN627_WHITTIER.A_A-BLD-UP.AT2  
34, SRSS, 628, -, 1.0, -, 7.4, 14.6, 0.1, "Whittier Narrows-01", 1987, "LA - Centinela St", 5.99, Reverse Oblique, 28.0, 31.53, 321.91, 0.22, 1.0, RSN628_WHITTIER.A_A-CEN155.AT2, RSN628_WHITTIER.A_A-CEN245.AT2 , RSN628_WHITTIER.A_A-CEN-UP.AT2  
35, SRSS, 629, -, 1.0, -, 6.3, 17.0, 0.2, "Whittier Narrows-01", 1987, "LA - Century City CC North", 5.99, Reverse Oblique, 26.14, 29.89, 277.98, 0.2875, 1.0, RSN629_WHITTIER.A_A-CCN000.AT2, RSN629_WHITTIER.A_A-CCN090.AT2 , RSN629_WHITTIER.A_A-CCN-UP.AT2  
36, SRSS, 632, -, 1.0, -, 3.1, 9.7, 0.2, "Whittier Narrows-01", 1987, "LA - Cypress Ave", 5.99, Reverse Oblique, 8.56, 16.97, 366.71, 0.3, 1.0, RSN632_WHITTIER.A_A-CYP053.AT2, RSN632_WHITTIER.A_A-CYP143.AT2 , RSN632_WHITTIER.A_A-CYP-UP.AT2  
37, SRSS, 633, -, 1.0, -, 5.6, 11.8, 0.2, "Whittier Narrows-01", 1987, "LA - E Vernon Ave", 5.99, Reverse Oblique, 10.5, 17.91, 283.14, 0.14, 1.0, RSN633_WHITTIER.A_A-VER083.AT2, RSN633_WHITTIER.A_A-VER173.AT2 , RSN633_WHITTIER.A_A-VER-UP.AT2  
38, SRSS, 634, -, 1.0, -, 2.9, 7.6, 0.4, "Whittier Narrows-01", 1987, "LA - Fletcher Dr", 5.99, Reverse Oblique, 11.07, 18.86, 329.06, 0.33, 1.0, RSN634_WHITTIER.A_A-FLE144.AT2, RSN634_WHITTIER.A_A-FLE234.AT2 , RSN634_WHITTIER.A_A-FLE-UP.AT2  
39, SRSS, 635, -, 1.0, -, 6.4, 13.6, 0.3, "Whittier Narrows-01", 1987, "LA - Hollywood Stor FF", 5.99, Reverse Oblique, 19.22, 24.08, 316.46, 0.4125, 1.0, RSN635_WHITTIER.A_A-PEL000.AT2, RSN635_WHITTIER.A_A-PEL090.AT2 , RSN635_WHITTIER.A_A-PEL-UP.AT2  
40, SRSS, 636, -, 1.0, -, 4.5, 10.8, 0.0, "Whittier Narrows-01", 1987, "LA - N Faring Rd", 5.99, Reverse Oblique, 27.94, 31.48, 255.0, 0.33, 1.0, RSN636_WHITTIER.A_A-FAR000.AT2, RSN636_WHITTIER.A_A-FAR090.AT2 , RSN636_WHITTIER.A_A-FAR-UP.AT2  
41, SRSS, 637, -, 1.0, -, 3.4, 8.6, 0.4, "Whittier Narrows-01", 1987, "LA - N Figueroa St", 5.99, Reverse Oblique, 6.0, 16.53, 364.91, 0.4, 1.0, RSN637_WHITTIER.A_A-FIG058.AT2, RSN637_WHITTIER.A_A-FIG328.AT2 , RSN637_WHITTIER.A_A-FIG-UP.AT2  
42, SRSS, 638, -, 1.0, -, 2.8, 8.6, 0.5, "Whittier Narrows-01", 1987, "LA - N Westmoreland", 5.99, Reverse Oblique, 15.34, 21.11, 315.06, 0.0, 1.0, RSN638_WHITTIER.A_A-WST000.AT2, RSN638_WHITTIER.A_A-WST270.AT2 , RSN638_WHITTIER.A_A-WST-UP.AT2  
43, SRSS, 639, -, 1.0, -, 3.1, 8.0, 1.3, "Whittier Narrows-01", 1987, "LA - Obregon Park", 5.99, Reverse Oblique, 4.5, 15.18, 349.43, 0.2875, 1.0, RSN639_WHITTIER.A_A-OBR270.AT2, RSN639_WHITTIER.A_A-OBR360.AT2 , RSN639_WHITTIER.A_A-OBR-UP.AT2  
44, SRSS, 640, -, 1.0, -, 4.0, 11.0, 0.4, "Whittier Narrows-01", 1987, "LA - S Grand Ave", 5.99, Reverse Oblique, 14.46, 20.48, 285.28, 0.2, 1.0, RSN640_WHITTIER.A_A-GR2090.AT2, RSN640_WHITTIER.A_A-GR2180.AT2 , RSN640_WHITTIER.A_A-GR2-UP.AT2  
45, SRSS, 641, -, 1.0, -, 3.7, 12.0, 0.1, "Whittier Narrows-01", 1987, "LA - Saturn St", 5.99, Reverse Oblique, 20.35, 24.99, 308.71, 0.3, 1.0, RSN641_WHITTIER.A_A-STN020.AT2, RSN641_WHITTIER.A_A-STN110.AT2 , RSN641_WHITTIER.A_A-STN-UP.AT2  
46, SRSS, 645, -, 1.0, -, 5.6, 11.7, 0.6, "Whittier Narrows-01", 1987, "LB - Orange Ave", 5.99, Reverse Oblique, 19.8, 24.54, 344.72, 0.13, 1.0, RSN645_WHITTIER.A_A-OR2010.AT2, RSN645_WHITTIER.A_A-OR2280.AT2 , RSN645_WHITTIER.A_A-OR2-UP.AT2  
47, SRSS, 646, -, 1.0, -, 2.3, 10.6, 0.4, "Whittier Narrows-01", 1987, "LB - Rancho Los Cerritos", 5.99, Reverse Oblique, 24.61, 28.56, 302.73, 0.25, 1.0, RSN646_WHITTIER.A_A-LBR000.AT2, RSN646_WHITTIER.A_A-LBR090.AT2 , RSN646_WHITTIER.A_A-LBR-UP.AT2  
48, SRSS, 648, -, 1.0, -, 3.1, 5.9, 0.2, "Whittier Narrows-01", 1987, "La Crescenta - New York", 5.99, Reverse Oblique, 19.28, 26.04, 411.55, 0.5, 1.0, RSN648_WHITTIER.A_A-NYA090.AT2, RSN648_WHITTIER.A_A-NYA180.AT2 , RSN648_WHITTIER.A_A-NYA-UP.AT2  
49, SRSS, 649, -, 1.0, -, 5.2, 10.9, 0.2, "Whittier Narrows-01", 1987, "La Habra - Briarcliff", 5.99, Reverse Oblique, 14.17, 20.28, 338.27, 0.12, 1.0, RSN649_WHITTIER.A_A-BRC000.AT2, RSN649_WHITTIER.A_A-BRC090.AT2 , RSN649_WHITTIER.A_A-BRC-UP.AT2  
50, SRSS, 650, -, 1.0, -, 3.8, 14.1, 0.2, "Whittier Narrows-01", 1987, "La Puente - Rimgrove Av", 5.99, Reverse Oblique, 10.24, 17.75, 339.52, 0.5, 1.0, RSN650_WHITTIER.A_A-RIM015.AT2, RSN650_WHITTIER.A_A-RIM105.AT2 , RSN650_WHITTIER.A_A-RIM-UP.AT2  
51, SRSS, 654, -, 1.0, -, 8.2, 12.3, 0.1, "Whittier Narrows-01", 1987, "Lawndale - Osage Ave", 5.99, Reverse Oblique, 26.31, 30.04, 311.86, 0.4, 1.0, RSN654_WHITTIER.A_A-LOA092.AT2, RSN654_WHITTIER.A_A-LOA182.AT2 , RSN654_WHITTIER.A_A-LOA-UP.AT2  
52, SRSS, 655, -, 1.0, -, 7.4, 14.0, 0.0, "Whittier Narrows-01", 1987, "Leona Valley #5 - Ritter", 5.99, Reverse Oblique, 56.48, 59.13, 375.22, 0.875, 1.0, RSN655_WHITTIER.A_A-LV5000.AT2, RSN655_WHITTIER.A_A-LV5090.AT2 , RSN655_WHITTIER.A_A-LV5-UP.AT2  
53, SRSS, 656, -, 1.0, -, 6.6, 14.7, 0.0, "Whittier Narrows-01", 1987, "Leona Valley #6", 5.99, Reverse Oblique, 56.97, 59.6, 327.44, 0.875, 1.0, RSN656_WHITTIER.A_A-LV6000.AT2, RSN656_WHITTIER.A_A-LV6090.AT2 , RSN656_WHITTIER.A_A-LV6-UP.AT2  
54, SRSS, 661, -, 1.0, -, 4.9, 11.5, 0.1, "Whittier Narrows-01", 1987, "Mill Creek_ Angeles Nat For", 5.99, Reverse Oblique, 32.36, 36.79, 569.84, 0.6, 1.0, RSN661_WHITTIER.A_A-ANG000.AT2, RSN661_WHITTIER.A_A-ANG090.AT2 , RSN661_WHITTIER.A_A-ANG-UP.AT2  
55, SRSS, 663, -, 1.0, -, 4.1, 9.8, 0.3, "Whittier Narrows-01", 1987, "Mt Wilson - CIT Seis Sta", 5.99, Reverse Oblique, 14.5, 22.73, 680.37, 0.2875, 1.0, RSN663_WHITTIER.A_A-MTW000.AT2, RSN663_WHITTIER.A_A-MTW090.AT2 , RSN663_WHITTIER.A_A-MTW-UP.AT2  
56, SRSS, 664, -, 1.0, -, 5.4, 11.0, 0.3, "Whittier Narrows-01", 1987, "N Hollywood - Coldwater Can", 5.99, Reverse Oblique, 28.37, 33.11, 326.47, 0.3, 1.0, RSN664_WHITTIER.A_A-CWC180.AT2, RSN664_WHITTIER.A_A-CWC270.AT2 , RSN664_WHITTIER.A_A-CWC-UP.AT2  
57, SRSS, 665, -, 1.0, -, 9.1, 17.2, 0.0, "Whittier Narrows-01", 1987, "Newhall - Fire Sta", 5.99, Reverse Oblique, 49.18, 52.2, 269.14, 0.5, 1.0, RSN665_WHITTIER.A_A-NWH180.AT2, RSN665_WHITTIER.A_A-NWH270.AT2 , RSN665_WHITTIER.A_A-NWH-UP.AT2  
58, SRSS, 666, -, 1.0, -, 6.8, 12.3, 0.1, "Whittier Narrows-01", 1987, "Newhall - W Pico Canyon Rd.", 5.99, Reverse Oblique, 55.93, 58.61, 285.93, 0.34, 1.0, RSN666_WHITTIER.A_A-WPI046.AT2, RSN666_WHITTIER.A_A-WPI316.AT2 , RSN666_WHITTIER.A_A-WPI-UP.AT2  
59, SRSS, 667, -, 1.0, -, 9.8, 20.3, 0.2, "Whittier Narrows-01", 1987, "Northridge - 17645 Saticoy St", 5.99, Reverse Oblique, 38.04, 41.69, 280.86, 0.23, 1.0, RSN667_WHITTIER.A_A-STC090.AT2, RSN667_WHITTIER.A_A-STC180.AT2 , RSN667_WHITTIER.A_A-STC-UP.AT2  
60, SRSS, 670, -, 1.0, -, 6.3, 13.0, 0.0, "Whittier Narrows-01", 1987, "Pacific Palisades - Sunset", 5.99, Reverse Oblique, 38.7, 41.32, 191.06, 0.4, 1.0, RSN670_WHITTIER.A_A-SUN190.AT2, RSN670_WHITTIER.A_A-SUN280.AT2 , RSN670_WHITTIER.A_A-SUN-UP.AT2  
61, SRSS, 671, -, 1.0, -, 4.3, 11.3, 0.2, "Whittier Narrows-01", 1987, "Pacoima Kagel Canyon", 5.99, Reverse Oblique, 31.59, 36.12, 508.08, 0.1625, 1.0, RSN671_WHITTIER.A_A-PKC000.AT2, RSN671_WHITTIER.A_A-PKC090.AT2 , RSN671_WHITTIER.A_A-PKC-UP.AT2  
62, SRSS, 672, -, 1.0, -, 6.2, 10.4, 0.2, "Whittier Narrows-01", 1987, "Pacoima Kagel Canyon USC", 5.99, Reverse Oblique, 31.8, 36.29, 323.76, 0.32, 1.0, RSN672_WHITTIER.A_A-KAG045.AT2, RSN672_WHITTIER.A_A-KAG315.AT2 , RSN672_WHITTIER.A_A-KAG-UP.AT2  
63, SRSS, 673, -, 1.0, -, 5.9, 12.6, 0.2, "Whittier Narrows-01", 1987, "Panorama City - Roscoe", 5.99, Reverse Oblique, 32.13, 36.55, 318.16, 0.3, 1.0, RSN673_WHITTIER.A_A-RO2090.AT2, RSN673_WHITTIER.A_A-RO2180.AT2 , RSN673_WHITTIER.A_A-RO2-UP.AT2  
64, SRSS, 683, -, 1.0, -, 2.5, 6.7, 0.4, "Whittier Narrows-01", 1987, "Pasadena - Old House Rd", 5.99, Reverse Oblique, 8.03, 19.17, 397.27, 0.13, 1.0, RSN683_WHITTIER.A_A-OLD000.AT2, RSN683_WHITTIER.A_A-OLD090.AT2 , RSN683_WHITTIER.A_A-OLD-UP.AT2  
65, SRSS, 688, -, 1.0, -, 7.1, 15.7, 0.0, "Whittier Narrows-01", 1987, "Riverside Airport", 5.99, Reverse Oblique, 54.58, 56.48, 389.95, 0.4, 1.0, RSN688_WHITTIER.A_A-RIV180.AT2, RSN688_WHITTIER.A_A-RIV270.AT2 , RSN688_WHITTIER.A_A-RIV-UP.AT2  
66, SRSS, 690, -, 1.0, -, 2.7, 8.3, 0.8, "Whittier Narrows-01", 1987, "San Gabriel - E Grand Ave", 5.99, Reverse Oblique, 0.0, 15.2, 401.37, 0.1, 1.0, RSN690_WHITTIER.A_A-GRN180.AT2, RSN690_WHITTIER.A_A-GRN270.AT2 , RSN690_WHITTIER.A_A-GRN-UP.AT2  
67, SRSS, 691, -, 1.0, -, 3.2, 11.4, 0.3, "Whittier Narrows-01", 1987, "San Marino - SW Academy", 5.99, Reverse Oblique, 1.57, 15.94, 379.43, 0.375, 1.0, RSN691_WHITTIER.A_A-SMA270.AT2, RSN691_WHITTIER.A_A-SMA360.AT2 , RSN691_WHITTIER.A_A-SMA-UP.AT2  
68, SRSS, 692, -, 1.0, -, 1.8, 6.0, 1.3, "Whittier Narrows-01", 1987, "Santa Fe Springs - E.Joslin", 5.99, Reverse Oblique, 11.47, 18.49, 339.06, 0.1, 1.0, RSN692_WHITTIER.A_A-EJS048.AT2, RSN692_WHITTIER.A_A-EJS318.AT2 , RSN692_WHITTIER.A_A-EJS-UP.AT2  
69, SRSS, 694, -, 1.0, -, 3.9, 10.5, 0.5, "Whittier Narrows-01", 1987, "Studio City - Ventura & Coldwater Cyn Av", 5.99, Reverse Oblique, 26.91, 31.06, 400.44, 0.3, 1.0, RSN694_WHITTIER.A_A-CO2092.AT2, RSN694_WHITTIER.A_A-CO2182.AT2 , RSN694_WHITTIER.A_A-CO2-UP.AT2  
70, SRSS, 695, -, 1.0, -, 2.9, 8.8, 0.3, "Whittier Narrows-01", 1987, "Sun Valley - Roscoe Blvd", 5.99, Reverse Oblique, 30.33, 34.99, 320.93, 0.3, 1.0, RSN695_WHITTIER.A_A-RO3000.AT2, RSN695_WHITTIER.A_A-RO3090.AT2 , RSN695_WHITTIER.A_A-RO3-UP.AT2  
