
 PEER Ground Motion Database, Time Series Search Report -- NGA-West2 -- 2021-03-29


 -- Summary of PEER Ground Motion Database Search Criteria --
Magnitude Min:, -1.0e-06
Magnitude Max:, 99999
Rrup Min (km):, -1.0e-06
Rrup Max (km):, 99999
Rjb Min (km):, -1.0e-06
Rjb Max (km):, 99999
Vs30 Min (m/sec):, -1.0e-06
Vs30 Max (m/sec):, 99999
D9-95 Min (sec):, -1.0e-06
D9-95 Max (sec):, 99999
Scale Factor Min:, -1.0e-06
Scale Factor Max:, 99999
Period Array:, 
Weight Array:, 
Record Sequence Number:, 1263,1262,1261,1260,1259,1258,1256,1247,1245,1243,1240,1239,1237,1236,1235,1234,1233,1232,1230,1228,1227,1219,1215,1214,1213,1212,1211,1210,1209,1208,1207,1206,1204,1200,1199,1196,1195,1190,1189,1187,1186,1094,1091,1088,1087,1083,1082,1080,1077,1076,1074,1072,1070,1062,1057,1053,1049,1048,1042,1041,1039,1035,1034,1033,1032,1031,1026,1024,1020,1019,1018,1017,1016,1015,1007,1006,1005,1003,1001,999,998,997,996,995,993,992,991,990,989,988,987,985,984,981,978,976,975,974,971
Earthquake Name:, 
Station Name:, 
User-Defined Maximum Number of Records:, 
Pulse:, 1
Damping Ratio:, 0.05
Scaling Method:, No Scaling
Suite Average:, Arithmetic
Single-Period-Scaling Period (sec):, 
Component:, SRSS
Fault Type:, All Types


 -- Summary of Metadata of Selected Records --
Result ID, Spectral Ordinate, Record Sequence Number, Mean Squared Error, Scale Factor, Tp-Pulse Period (sec), 5-75% Duration (sec), 5-95% Duration (sec), Arias Intensity (m/sec), Earthquake Name, Year, Station Name, Magnitude, Mechanism, Rjb (km), Rrup (km), Vs30 (m/sec), Lowest Useable Frequency (Hz), Initial-search Scale Factor, Horizontal-1 Acc. Filename, Horizontal-2 Acc. Filename, Vertical Acc. Filename
1, SRSS, 971, -, 1.0, -, 6.8, 11.7, 0.2, "Northridge-01", 1994, "Elizabeth Lake", 6.69, Reverse, 36.2, 36.55, 326.19, 0.16, 1.0, RSN971_NORTHR_ELL090.AT2, RSN971_NORTHR_ELL180.AT2 , RSN971_NORTHR_ELL-UP.AT2  
2, SRSS, 974, -, 1.0, -, 6.2, 11.5, 1.2, "Northridge-01", 1994, "Glendale - Las Palmas", 6.69, Reverse, 21.64, 22.21, 371.07, 0.375, 1.0, RSN974_NORTHR_GLP177.AT2, RSN974_NORTHR_GLP267.AT2 , RSN974_NORTHR_GLP-UP.AT2  
3, SRSS, 975, -, 1.0, -, 10.8, 16.6, 0.1, "Northridge-01", 1994, "Glendora - N Oakbank", 6.69, Reverse, 53.71, 53.94, 362.31, 0.4125, 1.0, RSN975_NORTHR_OAK080.AT2, RSN975_NORTHR_OAK170.AT2 , RSN975_NORTHR_OAK-UP.AT2  
4, SRSS, 976, -, 1.0, -, 10.5, 20.7, 0.1, "Northridge-01", 1994, "Hacienda Heights - Colima", 6.69, Reverse, 56.55, 57.02, 337.0, 0.5, 1.0, RSN976_NORTHR_COM140.AT2, RSN976_NORTHR_COM230.AT2 , RSN976_NORTHR_COM-UP.AT2  
5, SRSS, 978, -, 1.0, -, 6.7, 15.5, 0.9, "Northridge-01", 1994, "Hollywood - Willoughby Ave", 6.69, Reverse, 17.82, 23.07, 347.7, 0.175, 1.0, RSN978_NORTHR_WIL090.AT2, RSN978_NORTHR_WIL180.AT2 , RSN978_NORTHR_WIL-UP.AT2  
6, SRSS, 981, -, 1.0, -, 11.8, 21.6, 0.2, "Northridge-01", 1994, "Inglewood - Union Oil", 6.69, Reverse, 37.18, 42.2, 316.02, 0.16, 1.0, RSN981_NORTHR_ING000.AT2, RSN981_NORTHR_ING090.AT2 , RSN981_NORTHR_ING-UP.AT2  
7, SRSS, 984, -, 1.0, -, 7.6, 19.4, 0.4, "Northridge-01", 1994, "LA - 116th St School", 6.69, Reverse, 36.39, 41.17, 301.0, 0.16, 1.0, RSN984_NORTHR_116090.AT2, RSN984_NORTHR_116360.AT2 , RSN984_NORTHR_116-UP.AT2  
8, SRSS, 985, -, 1.0, -, 8.0, 17.3, 0.7, "Northridge-01", 1994, "LA - Baldwin Hills", 6.69, Reverse, 23.5, 29.88, 297.07, 0.16, 1.0, RSN985_NORTHR_BLD090.AT2, RSN985_NORTHR_BLD360.AT2 , RSN985_NORTHR_BLD-UP.AT2  
9, SRSS, 987, -, 1.0, -, 5.8, 12.2, 1.0, "Northridge-01", 1994, "LA - Centinela St", 6.69, Reverse, 20.36, 28.3, 321.91, 0.1625, 1.0, RSN987_NORTHR_CEN155.AT2, RSN987_NORTHR_CEN245.AT2 , RSN987_NORTHR_CEN-UP.AT2  
10, SRSS, 988, -, 1.0, -, 7.2, 13.6, 1.2, "Northridge-01", 1994, "LA - Century City CC North", 6.69, Reverse, 15.53, 23.41, 277.98, 0.14, 1.0, RSN988_NORTHR_CCN090.AT2, RSN988_NORTHR_CCN360.AT2 , RSN988_NORTHR_CCN-UP.AT2  
11, SRSS, 989, -, 1.0, -, 5.6, 9.0, 0.7, "Northridge-01", 1994, "LA - Chalon Rd", 6.69, Reverse, 9.87, 20.45, 740.05, 0.2625, 1.0, RSN989_NORTHR_CHL070.AT2, RSN989_NORTHR_CHL160.AT2 , RSN989_NORTHR_CHL-UP.AT2  
12, SRSS, 990, -, 1.0, -, 6.1, 11.9, 1.1, "Northridge-01", 1994, "LA - City Terrace", 6.69, Reverse, 35.03, 36.62, 365.22, 0.2, 1.0, RSN990_NORTHR_LAC090.AT2, RSN990_NORTHR_LAC180.AT2 , RSN990_NORTHR_LAC-UP.AT2  
13, SRSS, 991, -, 1.0, -, 5.8, 10.8, 0.5, "Northridge-01", 1994, "LA - Cypress Ave", 6.69, Reverse, 28.98, 30.7, 366.71, 0.15, 1.0, RSN991_NORTHR_CYP053.AT2, RSN991_NORTHR_CYP143.AT2 , RSN991_NORTHR_CYP-UP.AT2  
14, SRSS, 992, -, 1.0, -, 8.4, 15.5, 0.3, "Northridge-01", 1994, "LA - E Vernon Ave", 6.69, Reverse, 33.33, 36.75, 283.14, 0.25, 1.0, RSN992_NORTHR_VER090.AT2, RSN992_NORTHR_VER180.AT2 , RSN992_NORTHR_VER-UP.AT2  
15, SRSS, 993, -, 1.0, -, 6.1, 11.6, 0.7, "Northridge-01", 1994, "LA - Fletcher Dr", 6.69, Reverse, 25.66, 27.26, 329.06, 0.1625, 1.0, RSN993_NORTHR_FLE144.AT2, RSN993_NORTHR_FLE234.AT2 , RSN993_NORTHR_FLE-UP.AT2  
16, SRSS, 995, -, 1.0, -, 6.4, 12.0, 2.0, "Northridge-01", 1994, "LA - Hollywood Stor FF", 6.69, Reverse, 19.73, 24.03, 316.46, 0.2, 1.0, RSN995_NORTHR_PEL090.AT2, RSN995_NORTHR_PEL360.AT2 , RSN995_NORTHR_PEL-UP.AT2  
17, SRSS, 996, -, 1.0, -, 5.7, 10.3, 0.9, "Northridge-01", 1994, "LA - N Faring Rd", 6.69, Reverse, 12.42, 20.81, 255.0, 0.1625, 1.0, RSN996_NORTHR_FAR000.AT2, RSN996_NORTHR_FAR090.AT2 , RSN996_NORTHR_FAR-UP.AT2  
18, SRSS, 997, -, 1.0, -, 6.3, 13.1, 0.4, "Northridge-01", 1994, "LA - N Figueroa St", 6.69, Reverse, 30.19, 31.16, 364.91, 0.375, 1.0, RSN997_NORTHR_FIG058.AT2, RSN997_NORTHR_FIG328.AT2 , RSN997_NORTHR_FIG-UP.AT2  
19, SRSS, 998, -, 1.0, -, 5.7, 10.0, 1.4, "Northridge-01", 1994, "LA - N Westmoreland", 6.69, Reverse, 23.4, 26.73, 315.06, 0.2875, 1.0, RSN998_NORTHR_WST000.AT2, RSN998_NORTHR_WST270.AT2 , RSN998_NORTHR_WST-UP.AT2  
20, SRSS, 999, -, 1.0, -, 5.7, 11.3, 1.4, "Northridge-01", 1994, "LA - Obregon Park", 6.69, Reverse, 35.43, 37.36, 349.43, 0.9, 1.0, RSN999_NORTHR_OBR090.AT2, RSN999_NORTHR_OBR360.AT2 , RSN999_NORTHR_OBR-UP.AT2  
21, SRSS, 1001, -, 1.0, -, 6.1, 13.7, 0.7, "Northridge-01", 1994, "LA - S Grand Ave", 6.69, Reverse, 29.52, 33.99, 285.28, 0.375, 1.0, RSN1001_NORTHR_GR2090.AT2, RSN1001_NORTHR_GR2180.AT2 , RSN1001_NORTHR_GR2-UP.AT2  
22, SRSS, 1003, -, 1.0, -, 5.5, 11.6, 1.6, "Northridge-01", 1994, "LA - Saturn St", 6.69, Reverse, 21.17, 27.01, 308.71, 0.1875, 1.0, RSN1003_NORTHR_STN020.AT2, RSN1003_NORTHR_STN110.AT2 , RSN1003_NORTHR_STN-UP.AT2  
23, SRSS, 1005, -, 1.0, -, 7.3, 14.6, 0.5, "Northridge-01", 1994, "LA - Temple & Hope", 6.69, Reverse, 28.82, 31.48, 452.15, 0.2, 1.0, RSN1005_NORTHR_TEM090.AT2, RSN1005_NORTHR_TEM180.AT2 , RSN1005_NORTHR_TEM-UP.AT2  
24, SRSS, 1006, -, 1.0, -, 5.8, 11.3, 1.6, "Northridge-01", 1994, "LA - UCLA Grounds", 6.69, Reverse, 13.8, 22.49, 398.42, 0.16, 1.0, RSN1006_NORTHR_UCL090.AT2, RSN1006_NORTHR_UCL360.AT2 , RSN1006_NORTHR_UCL-UP.AT2  
25, SRSS, 1007, -, 1.0, -, 6.6, 12.3, 1.4, "Northridge-01", 1994, "Los Angeles - 7-story Univ Hospital (FF)", 6.69, Reverse, 32.39, 34.2, 332.28, 0.2, 1.0, RSN1007_NORTHR_UNI005.AT2, RSN1007_NORTHR_UNI095.AT2 , RSN1007_NORTHR_UNI-UP.AT2  
26, SRSS, 1015, -, 1.0, -, 13.6, 25.8, 0.2, "Northridge-01", 1994, "LB - Rancho Los Cerritos", 6.69, Reverse, 47.79, 51.89, 302.73, 0.16, 1.0, RSN1015_NORTHR_LBR000.AT2, RSN1015_NORTHR_LBR090.AT2 , RSN1015_NORTHR_LBR-UP.AT2  
27, SRSS, 1016, -, 1.0, -, 6.0, 11.0, 0.5, "Northridge-01", 1994, "La Crescenta - New York", 6.69, Reverse, 17.81, 18.5, 411.55, 0.375, 1.0, RSN1016_NORTHR_NYA090.AT2, RSN1016_NORTHR_NYA180.AT2 , RSN1016_NORTHR_NYA-UP.AT2  
28, SRSS, 1017, -, 1.0, -, 5.9, 14.4, 0.2, "Northridge-01", 1994, "La Habra - Briarcliff", 6.69, Reverse, 58.32, 59.62, 338.27, 0.25, 1.0, RSN1017_NORTHR_BRC000.AT2, RSN1017_NORTHR_BRC090.AT2 , RSN1017_NORTHR_BRC-UP.AT2  
29, SRSS, 1018, -, 1.0, -, 7.0, 13.8, 0.2, "Northridge-01", 1994, "La Puente - Rimgrove Av", 6.69, Reverse, 56.36, 56.59, 339.52, 0.5, 1.0, RSN1018_NORTHR_RIM015.AT2, RSN1018_NORTHR_RIM105.AT2 , RSN1018_NORTHR_RIM-UP.AT2  
30, SRSS, 1019, -, 1.0, -, 8.4, 16.0, 0.2, "Northridge-01", 1994, "Lake Hughes #1", 6.69, Reverse, 35.46, 35.81, 425.34, 0.12, 1.0, RSN1019_NORTHR_L01000.AT2, RSN1019_NORTHR_L01090.AT2 , RSN1019_NORTHR_L01-UP.AT2  
31, SRSS, 1020, -, 1.0, -, 5.4, 9.8, 0.5, "Northridge-01", 1994, "Lake Hughes #12A", 6.69, Reverse, 20.77, 21.36, 602.1, 0.12, 1.0, RSN1020_NORTHR_H12090.AT2, RSN1020_NORTHR_H12180.AT2 , RSN1020_NORTHR_H12-UP.AT2  
32, SRSS, 1024, -, 1.0, -, 11.2, 21.2, 0.4, "Northridge-01", 1994, "Lakewood - Del Amo Blvd", 6.69, Reverse, 53.56, 56.91, 267.35, 0.1625, 1.0, RSN1024_NORTHR_DEL000.AT2, RSN1024_NORTHR_DEL090.AT2 , RSN1024_NORTHR_DEL-UP.AT2  
33, SRSS, 1026, -, 1.0, -, 14.4, 23.3, 0.2, "Northridge-01", 1994, "Lawndale - Osage Ave", 6.69, Reverse, 34.31, 39.91, 311.86, 0.1625, 1.0, RSN1026_NORTHR_LOA092.AT2, RSN1026_NORTHR_LOA182.AT2 , RSN1026_NORTHR_LOA-UP.AT2  
34, SRSS, 1031, -, 1.0, -, 7.2, 16.0, 0.3, "Northridge-01", 1994, "Leona Valley #5 - Ritter", 6.69, Reverse, 37.47, 37.8, 375.22, 0.2, 1.0, RSN1031_NORTHR_LV5000.AT2, RSN1031_NORTHR_LV5090.AT2 , RSN1031_NORTHR_LV5-UP.AT2  
35, SRSS, 1032, -, 1.0, -, 5.1, 11.6, 0.3, "Northridge-01", 1994, "Leona Valley #6", 6.69, Reverse, 37.7, 38.03, 327.44, 0.2, 1.0, RSN1032_NORTHR_LV6090.AT2, RSN1032_NORTHR_LV6360.AT2 , RSN1032_NORTHR_LV6-UP.AT2  
36, SRSS, 1033, -, 1.0, -, 9.7, 17.6, 0.1, "Northridge-01", 1994, "Littlerock - Brainard Can", 6.69, Reverse, 46.31, 46.58, 485.67, 0.2, 1.0, RSN1033_NORTHR_LIT090.AT2, RSN1033_NORTHR_LIT180.AT2 , RSN1033_NORTHR_LIT-UP.AT2  
37, SRSS, 1034, -, 1.0, -, 8.5, 17.6, 0.2, "Northridge-01", 1994, "Malibu - Point Dume Sch", 6.69, Reverse, 26.77, 33.67, 349.54, 0.3, 1.0, RSN1034_NORTHR_MAL090.AT2, RSN1034_NORTHR_MAL360.AT2 , RSN1034_NORTHR_MAL-UP.AT2  
38, SRSS, 1035, -, 1.0, -, 9.1, 20.4, 0.2, "Northridge-01", 1994, "Manhattan Beach - Manhattan", 6.69, Reverse, 33.56, 39.29, 351.57, 0.1625, 1.0, RSN1035_NORTHR_MAN000.AT2, RSN1035_NORTHR_MAN090.AT2 , RSN1035_NORTHR_MAN-UP.AT2  
39, SRSS, 1039, -, 1.0, -, 7.7, 16.1, 0.9, "Northridge-01", 1994, "Moorpark - Fire Sta", 6.69, Reverse, 16.92, 24.76, 341.58, 0.16, 1.0, RSN1039_NORTHR_MRP090.AT2, RSN1039_NORTHR_MRP180.AT2 , RSN1039_NORTHR_MRP-UP.AT2  
40, SRSS, 1041, -, 1.0, -, 6.8, 10.8, 0.3, "Northridge-01", 1994, "Mt Wilson - CIT Seis Sta", 6.69, Reverse, 35.53, 35.88, 680.37, 0.5, 1.0, RSN1041_NORTHR_MTW000.AT2, RSN1041_NORTHR_MTW090.AT2 , RSN1041_NORTHR_MTW-UP.AT2  
41, SRSS, 1042, -, 1.0, -, 7.0, 16.0, 1.2, "Northridge-01", 1994, "N Hollywood - Coldwater Can", 6.69, Reverse, 7.89, 12.51, 326.47, 0.125, 1.0, RSN1042_NORTHR_CWC180.AT2, RSN1042_NORTHR_CWC270.AT2 , RSN1042_NORTHR_CWC-UP.AT2  
42, SRSS, 1048, -, 1.0, -, 6.6, 15.7, 4.6, "Northridge-01", 1994, "Northridge - 17645 Saticoy St", 6.69, Reverse, 0.0, 12.09, 280.86, 0.1625, 1.0, RSN1048_NORTHR_STC090.AT2, RSN1048_NORTHR_STC180.AT2 ,  -----   
43, SRSS, 1049, -, 1.0, -, 6.0, 10.3, 1.9, "Northridge-01", 1994, "Pacific Palisades - Sunset", 6.69, Reverse, 13.34, 24.08, 191.06, 0.1625, 1.0, RSN1049_NORTHR_SUN190.AT2, RSN1049_NORTHR_SUN280.AT2 , RSN1049_NORTHR_SUN-UP.AT2  
44, SRSS, 1053, -, 1.0, -, 9.5, 18.0, 0.1, "Northridge-01", 1994, "Palmdale - Hwy 14 & Palmdale", 6.69, Reverse, 41.37, 41.67, 551.56, 0.2, 1.0, RSN1053_NORTHR_PHP000.AT2, RSN1053_NORTHR_PHP270.AT2 , RSN1053_NORTHR_PHP-UP.AT2  
45, SRSS, 1057, -, 1.0, -, 14.8, 29.7, 0.3, "Northridge-01", 1994, "Playa Del Rey - Saran", 6.69, Reverse, 24.42, 31.74, 345.72, 0.15, 1.0, RSN1057_NORTHR_SAR000.AT2, RSN1057_NORTHR_SAR270.AT2 , RSN1057_NORTHR_SAR-UP.AT2  
46, SRSS, 1062, -, 1.0, -, 6.6, 13.1, 0.2, "Northridge-01", 1994, "Rancho Palos Verdes - Luconia", 6.69, Reverse, 50.47, 54.45, 508.83, 0.375, 1.0, RSN1062_NORTHR_LUC005.AT2, RSN1062_NORTHR_LUC095.AT2 , RSN1062_NORTHR_LUC-UP.AT2  
47, SRSS, 1070, -, 1.0, -, 7.3, 14.4, 0.5, "Northridge-01", 1994, "San Gabriel - E Grand Ave", 6.69, Reverse, 38.86, 39.31, 401.37, 0.1625, 1.0, RSN1070_NORTHR_GRN180.AT2, RSN1070_NORTHR_GRN270.AT2 , RSN1070_NORTHR_GRN-UP.AT2  
48, SRSS, 1072, -, 1.0, -, 5.7, 12.4, 0.3, "Northridge-01", 1994, "San Marino - SW Academy", 6.69, Reverse, 34.55, 35.02, 379.43, 0.6, 1.0, RSN1072_NORTHR_SMA090.AT2, RSN1072_NORTHR_SMA360.AT2 , RSN1072_NORTHR_SMA-UP.AT2  
49, SRSS, 1074, -, 1.0, -, 7.4, 15.9, 0.1, "Northridge-01", 1994, "Sandberg - Bald Mtn", 6.69, Reverse, 41.26, 41.56, 421.0, 0.12, 1.0, RSN1074_NORTHR_SAN090.AT2, RSN1074_NORTHR_SAN180.AT2 , RSN1074_NORTHR_SAN-UP.AT2  
50, SRSS, 1076, -, 1.0, -, 7.5, 14.8, 0.4, "Northridge-01", 1994, "Santa Fe Springs - E.Joslin", 6.69, Reverse, 48.06, 50.22, 339.06, 0.125, 1.0, RSN1076_NORTHR_EJS030.AT2, RSN1076_NORTHR_EJS120.AT2 , RSN1076_NORTHR_EJS-UP.AT2  
51, SRSS, 1077, -, 1.0, -, 6.9, 10.7, 2.8, "Northridge-01", 1994, "Santa Monica City Hall", 6.69, Reverse, 17.28, 26.45, 336.2, 0.14, 1.0, RSN1077_NORTHR_STM090.AT2, RSN1077_NORTHR_STM360.AT2 , RSN1077_NORTHR_STM-UP.AT2  
52, SRSS, 1080, -, 1.0, -, 3.7, 6.7, 4.1, "Northridge-01", 1994, "Simi Valley - Katherine Rd", 6.69, Reverse, 0.0, 13.42, 557.42, 0.2625, 1.0, RSN1080_NORTHR_KAT000.AT2, RSN1080_NORTHR_KAT090.AT2 , RSN1080_NORTHR_KAT-UP.AT2  
53, SRSS, 1082, -, 1.0, -, 5.8, 16.7, 1.5, "Northridge-01", 1994, "Sun Valley - Roscoe Blvd", 6.69, Reverse, 5.59, 10.05, 320.93, 0.125, 1.0, RSN1082_NORTHR_RO3000.AT2, RSN1082_NORTHR_RO3090.AT2 , RSN1082_NORTHR_RO3-UP.AT2  
54, SRSS, 1083, -, 1.0, -, 6.8, 15.9, 0.5, "Northridge-01", 1994, "Sunland - Mt Gleason Ave", 6.69, Reverse, 12.38, 13.35, 402.16, 0.125, 1.0, RSN1083_NORTHR_GLE170.AT2, RSN1083_NORTHR_GLE260.AT2 , RSN1083_NORTHR_GLE-UP.AT2  
55, SRSS, 1087, -, 1.0, -, 7.1, 12.6, 22.7, "Northridge-01", 1994, "Tarzana - Cedar Hill A", 6.69, Reverse, 0.37, 15.6, 257.21, 0.1, 1.0, RSN1087_NORTHR_TAR090.AT2, RSN1087_NORTHR_TAR360.AT2 , RSN1087_NORTHR_TAR-UP.AT2  
56, SRSS, 1088, -, 1.0, -, 6.3, 14.2, 0.5, "Northridge-01", 1994, "Terminal Island - S Seaside", 6.69, Reverse, 53.43, 57.2, 260.6, 0.15, 1.0, RSN1088_NORTHR_SSE240.AT2, RSN1088_NORTHR_SSE330.AT2 , RSN1088_NORTHR_SSE-UP.AT2  
57, SRSS, 1091, -, 1.0, -, 4.3, 8.3, 0.4, "Northridge-01", 1994, "Vasquez Rocks Park", 6.69, Reverse, 23.1, 23.64, 996.43, 0.25, 1.0, RSN1091_NORTHR_VAS000.AT2, RSN1091_NORTHR_VAS090.AT2 , RSN1091_NORTHR_VAS-UP.AT2  
58, SRSS, 1094, -, 1.0, -, 10.7, 19.7, 0.1, "Northridge-01", 1994, "West Covina - S Orange Ave", 6.69, Reverse, 51.46, 51.7, 334.69, 0.075, 1.0, RSN1094_NORTHR_SOR225.AT2, RSN1094_NORTHR_SOR315.AT2 , RSN1094_NORTHR_SOR-UP.AT2  
59, SRSS, 1186, -, 1.0, -, 10.7, 27.2, 1.7, "Chi-Chi_ Taiwan", 1999, "CHY014", 7.62, Reverse Oblique, 33.19, 34.18, 347.63, 0.0375, 1.0, RSN1186_CHICHI_CHY014-N.AT2, RSN1186_CHICHI_CHY014-W.AT2 , RSN1186_CHICHI_CHY014-V.AT2  
60, SRSS, 1187, -, 1.0, -, 23.6, 38.7, 0.9, "Chi-Chi_ Taiwan", 1999, "CHY015", 7.62, Reverse Oblique, 38.13, 38.13, 228.66, 0.0375, 1.0, RSN1187_CHICHI_CHY015-N.AT2, RSN1187_CHICHI_CHY015-W.AT2 , RSN1187_CHICHI_CHY015-V.AT2  
61, SRSS, 1189, -, 1.0, -, 40.9, 68.3, 0.3, "Chi-Chi_ Taiwan", 1999, "CHY017", 7.62, Reverse Oblique, 59.09, 59.09, 190.57, 0.0375, 1.0, RSN1189_CHICHI_CHY017-N.AT2, RSN1189_CHICHI_CHY017-W.AT2 , RSN1189_CHICHI_CHY017-V.AT2  
62, SRSS, 1190, -, 1.0, -, 24.7, 39.1, 0.1, "Chi-Chi_ Taiwan", 1999, "CHY019", 7.62, Reverse Oblique, 49.98, 50.53, 497.53, 0.0375, 1.0, RSN1190_CHICHI_CHY019-N.AT2, RSN1190_CHICHI_CHY019-W.AT2 , RSN1190_CHICHI_CHY019-V.AT2  
63, SRSS, 1195, -, 1.0, -, 33.8, 44.7, 0.6, "Chi-Chi_ Taiwan", 1999, "CHY026", 7.62, Reverse Oblique, 29.52, 29.52, 226.01, 0.05, 1.0, RSN1195_CHICHI_CHY026-E.AT2, RSN1195_CHICHI_CHY026-N.AT2 , RSN1195_CHICHI_CHY026-V.AT2  
64, SRSS, 1196, -, 1.0, -, 29.1, 47.6, 0.2, "Chi-Chi_ Taiwan", 1999, "CHY027", 7.62, Reverse Oblique, 41.99, 41.99, 210.01, 0.05, 1.0, RSN1196_CHICHI_CHY027-E.AT2, RSN1196_CHICHI_CHY027-N.AT2 , RSN1196_CHICHI_CHY027-V.AT2  
65, SRSS, 1199, -, 1.0, -, 28.6, 43.9, 0.5, "Chi-Chi_ Taiwan", 1999, "CHY032", 7.62, Reverse Oblique, 35.43, 35.43, 192.71, 0.0375, 1.0, RSN1199_CHICHI_CHY032-E.AT2, RSN1199_CHICHI_CHY032-N.AT2 , RSN1199_CHICHI_CHY032-V.AT2  
66, SRSS, 1200, -, 1.0, -, 31.1, 49.0, 0.3, "Chi-Chi_ Taiwan", 1999, "CHY033", 7.62, Reverse Oblique, 43.82, 43.82, 197.63, 0.0625, 1.0, RSN1200_CHICHI_CHY033-E.AT2, RSN1200_CHICHI_CHY033-N.AT2 , RSN1200_CHICHI_CHY033-V.AT2  
67, SRSS, 1204, -, 1.0, -, 17.9, 39.0, 0.5, "Chi-Chi_ Taiwan", 1999, "CHY039", 7.62, Reverse Oblique, 31.87, 31.87, 201.21, 0.0375, 1.0, RSN1204_CHICHI_CHY039-E.AT2, RSN1204_CHICHI_CHY039-N.AT2 , RSN1204_CHICHI_CHY039-V.AT2  
68, SRSS, 1206, -, 1.0, -, 24.2, 37.1, 0.3, "Chi-Chi_ Taiwan", 1999, "CHY042", 7.62, Reverse Oblique, 27.47, 28.17, 665.2, 0.075, 1.0, RSN1206_CHICHI_CHY042-E.AT2, RSN1206_CHICHI_CHY042-N.AT2 , RSN1206_CHICHI_CHY042-V.AT2  
69, SRSS, 1207, -, 1.0, -, 27.6, 46.9, 0.2, "Chi-Chi_ Taiwan", 1999, "CHY044", 7.62, Reverse Oblique, 55.13, 55.13, 194.47, 0.075, 1.0, RSN1207_CHICHI_CHY044-E.AT2, RSN1207_CHICHI_CHY044-N.AT2 , RSN1207_CHICHI_CHY044-V.AT2  
70, SRSS, 1208, -, 1.0, -, 21.2, 33.0, 0.8, "Chi-Chi_ Taiwan", 1999, "CHY046", 7.62, Reverse Oblique, 24.1, 24.1, 442.15, 0.05, 1.0, RSN1208_CHICHI_CHY046-E.AT2, RSN1208_CHICHI_CHY046-N.AT2 , RSN1208_CHICHI_CHY046-V.AT2  
71, SRSS, 1209, -, 1.0, -, 21.4, 34.9, 1.1, "Chi-Chi_ Taiwan", 1999, "CHY047", 7.62, Reverse Oblique, 24.13, 24.13, 169.52, 0.0375, 1.0, RSN1209_CHICHI_CHY047-N.AT2, RSN1209_CHICHI_CHY047-W.AT2 , RSN1209_CHICHI_CHY047-V.AT2  
72, SRSS, 1210, -, 1.0, -, 23.6, 39.5, 0.2, "Chi-Chi_ Taiwan", 1999, "CHY050", 7.62, Reverse Oblique, 44.74, 44.76, 538.93, 0.05, 1.0, RSN1210_CHICHI_CHY050-E.AT2, RSN1210_CHICHI_CHY050-N.AT2 , RSN1210_CHICHI_CHY050-V.AT2  
73, SRSS, 1211, -, 1.0, -, 20.1, 34.5, 0.4, "Chi-Chi_ Taiwan", 1999, "CHY052", 7.62, Reverse Oblique, 38.7, 39.02, 573.04, 0.0375, 1.0, RSN1211_CHICHI_CHY052-N.AT2, RSN1211_CHICHI_CHY052-W.AT2 , RSN1211_CHICHI_CHY052-V.AT2  
74, SRSS, 1212, -, 1.0, -, 28.6, 39.8, 0.4, "Chi-Chi_ Taiwan", 1999, "CHY054", 7.62, Reverse Oblique, 48.49, 48.49, 172.1, 0.0375, 1.0, RSN1212_CHICHI_CHY054-E.AT2, RSN1212_CHICHI_CHY054-N.AT2 , RSN1212_CHICHI_CHY054-V.AT2  
75, SRSS, 1213, -, 1.0, -, 36.8, 62.0, 0.5, "Chi-Chi_ Taiwan", 1999, "CHY055", 7.62, Reverse Oblique, 54.3, 54.3, 225.77, 0.0375, 1.0, RSN1213_CHICHI_CHY055-W.AT2, RSN1213_CHICHI_CHY055-N.AT2 , RSN1213_CHICHI_CHY055-V.AT2  
76, SRSS, 1214, -, 1.0, -, 26.1, 39.1, 0.1, "Chi-Chi_ Taiwan", 1999, "CHY057", 7.62, Reverse Oblique, 56.67, 56.93, 411.46, 0.0375, 1.0, RSN1214_CHICHI_CHY057-E.AT2, RSN1214_CHICHI_CHY057-N.AT2 , RSN1214_CHICHI_CHY057-V.AT2  
77, SRSS, 1215, -, 1.0, -, 30.8, 44.9, 0.2, "Chi-Chi_ Taiwan", 1999, "CHY058", 7.62, Reverse Oblique, 59.79, 59.8, 269.28, 0.0375, 1.0, RSN1215_CHICHI_CHY058-E.AT2, RSN1215_CHICHI_CHY058-N.AT2 , RSN1215_CHICHI_CHY058-V.AT2  
78, SRSS, 1219, -, 1.0, -, 21.4, 34.3, 0.1, "Chi-Chi_ Taiwan", 1999, "CHY062", 7.62, Reverse Oblique, 56.93, 57.5, 602.63, 0.25, 1.0, RSN1219_CHICHI_CHY062-E.AT2, RSN1219_CHICHI_CHY062-N.AT2 , RSN1219_CHICHI_CHY062-V.AT2  
79, SRSS, 1227, -, 1.0, -, 19.1, 32.0, 1.1, "Chi-Chi_ Taiwan", 1999, "CHY074", 7.62, Reverse Oblique, 0.7, 10.8, 553.43, 0.025, 1.0, RSN1227_CHICHI_CHY074-E.AT2, RSN1227_CHICHI_CHY074-N.AT2 , RSN1227_CHICHI_CHY074-V.AT2  
80, SRSS, 1228, -, 1.0, -, 31.1, 42.0, 0.3, "Chi-Chi_ Taiwan", 1999, "CHY076", 7.62, Reverse Oblique, 42.15, 42.15, 169.84, 0.05, 1.0, RSN1228_CHICHI_CHY076-E.AT2, RSN1228_CHICHI_CHY076-N.AT2 , RSN1228_CHICHI_CHY076-V.AT2  
81, SRSS, 1230, -, 1.0, -, 21.2, 37.6, 0.1, "Chi-Chi_ Taiwan", 1999, "CHY079", 7.62, Reverse Oblique, 46.59, 47.52, 573.04, 0.0375, 1.0, RSN1230_CHICHI_CHY079-E.AT2, RSN1230_CHICHI_CHY079-N.AT2 , RSN1230_CHICHI_CHY079-V.AT2  
82, SRSS, 1232, -, 1.0, -, 18.9, 36.3, 0.1, "Chi-Chi_ Taiwan", 1999, "CHY081", 7.62, Reverse Oblique, 41.36, 41.67, 573.04, 0.0375, 1.0, RSN1232_CHICHI_CHY081-E.AT2, RSN1232_CHICHI_CHY081-N.AT2 , RSN1232_CHICHI_CHY081-V.AT2  
